[{"OBJECT_NAME":"STARLINK-30615","OBJECT_ID":"2023-160T","EPOCH":"2026-03-09T00:53:40.522848","MEAN_MOTION":15.2674229,"ECCENTRICITY":0.00013765,"INCLINATION":43.0006,"RA_OF_ASC_NODE":81.7657,"ARG_OF_PERICENTER":261.3831,"MEAN_ANOMALY":98.6865,"EPHEMERIS_TYPE":0,"CLASSIFICATION_TYPE":"U","NORAD_CAT_ID":58092,"ELEMENT_SET_NO":999,"REV_AT_EPOCH":13284,"BSTAR":4.0862906e-5,"MEAN_MOTION_DOT":8.37e-6,"MEAN_MOTION_DDOT":0},{"OBJECT_NAME":"OBJECT C","OBJECT_ID":"2024-092C","EPOCH":"2026-03-09T23:10:26.961312","MEAN_MOTION":15.27308901,"ECCENTRICITY":0.00097974,"INCLINATION":97.6475,"RA_OF_ASC_NODE":197.1606,"ARG_OF_PERICENTER":169.1353,"MEAN_ANOMALY":191.0098,"EPHEMERIS_TYPE":0,"CLASSIFICATION_TYPE":"U","NORAD_CAT_ID":59775,"ELEMENT_SET_NO":999,"REV_AT_EPOCH":10042,"BSTAR":0.00057925748,"MEAN_MOTION_DOT":0.00015454,"MEAN_MOTION_DDOT":0}]
